start=new Date('2021-09-03T00:00:00.000Z').valueOf();
sats=[{"LAUNCH_DATE":"2020-04-22","ECCENTRICITY":"0.00007600","REV_AT_EPOCH":"7695","GP_ID":"183986792","RCS_SIZE":"LARGE","OBJECT_ID":"2020-025AT","ELEMENT_SET_NO":"999","CENTER_NAME":"EARTH","DECAY_DATE":null,"EPHEMERIS_TYPE":"0","EPOCH":"2021-09-02T13:52:13.934784","MEAN_ANOMALY":"265.0346","TIME_SYSTEM":"UTC","PERIAPSIS":"546.708","APOAPSIS":"547.761","CLASSIFICATION_TYPE":"U","SEMIMAJOR_AXIS":"6925.369","FILE":"3107724","ARG_OF_PERICENTER":"95.0729","BSTAR":"0.00016509000000","INCLINATION":"53.0542","TLE_LINE2":"2 45572  53.0542 279.7813 0000760  95.0729 265.0346 15.06393230 76951","OBJECT_TYPE":"PAYLOAD","MEAN_MOTION_DDOT":"0.0000000000000","REF_FRAME":"TEME","SITE":"AFETR","NORAD_CAT_ID":"45572","TLE_LINE1":"1 45572U 20025AT  21245.57793906  .00002178  00000-0  16509-3 0  9994","MEAN_ELEMENT_THEORY":"SGP4","PERIOD":"95.593","MEAN_MOTION":"15.06393230","MEAN_MOTION_DOT":"0.00002178","OBJECT_NAME":"STARLINK-1320","COUNTRY_CODE":"US","RA_OF_ASC_NODE":"279.7813"},{"MEAN_ELEMENT_THEORY":"SGP4","NORAD_CAT_ID":"45573","TLE_LINE1":"1 45573U 20025AU  21245.62217898  .00006669  00000-0  46610-3 0  9997","SITE":"AFETR","REF_FRAME":"TEME","MEAN_MOTION_DDOT":"0.0000000000000","INCLINATION":"53.0528","TLE_LINE2":"2 45573  53.0528 279.5775 0001316  81.5506 278.5632 15.06404712 76654","OBJECT_TYPE":"PAYLOAD","FILE":"3107724","BSTAR":"0.00046610000000","ARG_OF_PERICENTER":"81.5506","RA_OF_ASC_NODE":"279.5775","OBJECT_NAME":"STARLINK-1321","COUNTRY_CODE":"US","MEAN_MOTION_DOT":"0.00006669","PERIOD":"95.592","MEAN_MOTION":"15.06404712","ECCENTRICITY":"0.00013160","GP_ID":"183987543","OBJECT_ID":"2020-025AU","RCS_SIZE":"LARGE","REV_AT_EPOCH":"7665","LAUNCH_DATE":"2020-04-22","TIME_SYSTEM":"UTC","PERIAPSIS":"546.288","SEMIMAJOR_AXIS":"6925.334","APOAPSIS":"548.110","CLASSIFICATION_TYPE":"U","EPOCH":"2021-09-02T14:55:56.263872","MEAN_ANOMALY":"278.5632","EPHEMERIS_TYPE":"0","DECAY_DATE":null,"CENTER_NAME":"EARTH","ELEMENT_SET_NO":"999"},{"COUNTRY_CODE":"US","OBJECT_NAME":"STARLINK-1324","RA_OF_ASC_NODE":"279.7606","MEAN_MOTION_DOT":"0.00001030","PERIOD":"95.593","MEAN_MOTION":"15.06388872","SITE":"AFETR","MEAN_ELEMENT_THEORY":"SGP4","TLE_LINE1":"1 45574U 20025AV  21245.58163756  .00001030  00000-0  88048-4 0  9995","NORAD_CAT_ID":"45574","TLE_LINE2":"2 45574  53.0543 279.7606 0000833  91.2913 268.8172 15.06388872 76963","INCLINATION":"53.0543","OBJECT_TYPE":"PAYLOAD","FILE":"3107724","BSTAR":"0.00008804800000","ARG_OF_PERICENTER":"91.2913","MEAN_MOTION_DDOT":"0.0000000000000","REF_FRAME":"TEME","PERIAPSIS":"546.671","SEMIMAJOR_AXIS":"6925.383","APOAPSIS":"547.825","CLASSIFICATION_TYPE":"U","TIME_SYSTEM":"UTC","CENTER_NAME":"EARTH","ELEMENT_SET_NO":"999","MEAN_ANOMALY":"268.8172","EPOCH":"2021-09-02T13:57:33.485184","DECAY_DATE":null,"EPHEMERIS_TYPE":"0","LAUNCH_DATE":"2020-04-22","RCS_SIZE":"LARGE","GP_ID":"183985791","REV_AT_EPOCH":"7696","OBJECT_ID":"2020-025AV","ECCENTRICITY":"0.00008330"},{"APOAPSIS":"544.009","PERIAPSIS":"542.636","CLASSIFICATION_TYPE":"U","SEMIMAJOR_AXIS":"6921.458","TIME_SYSTEM":"UTC","ELEMENT_SET_NO":"999","CENTER_NAME":"EARTH","DECAY_DATE":null,"EPHEMERIS_TYPE":"0","EPOCH":"2021-09-02T09:29:55.868928","MEAN_ANOMALY":"285.0560","LAUNCH_DATE":"2020-04-22","OBJECT_ID":"2020-025AW","GP_ID":"183959329","RCS_SIZE":"LARGE","REV_AT_EPOCH":"7695","ECCENTRICITY":"0.00009920","COUNTRY_CODE":"US","OBJECT_NAME":"STARLINK-1326","RA_OF_ASC_NODE":"278.0248","PERIOD":"95.512","MEAN_MOTION":"15.07670396","MEAN_MOTION_DOT":"0.00002560","SITE":"AFETR","TLE_LINE1":"1 45575U 20025AW  21245.39578552  .00002560  00000-0  18448-3 0  9994","NORAD_CAT_ID":"45575","MEAN_ELEMENT_THEORY":"SGP4","FILE":"3107538","ARG_OF_PERICENTER":"75.0539","BSTAR":"0.00018448000000","OBJECT_TYPE":"PAYLOAD","TLE_LINE2":"2 45575  53.0010 278.0248 0000992  75.0539 285.0560 15.07670396 76954","INCLINATION":"53.0010","MEAN_MOTION_DDOT":"0.0000000000000","REF_FRAME":"TEME"},{"LAUNCH_DATE":"2020-04-22","ECCENTRICITY":"0.00007890","GP_ID":"183960076","OBJECT_ID":"2020-025AX","RCS_SIZE":"LARGE","REV_AT_EPOCH":"7693","TIME_SYSTEM":"UTC","SEMIMAJOR_AXIS":"6925.396","PERIAPSIS":"546.714","APOAPSIS":"547.807","CLASSIFICATION_TYPE":"U","CENTER_NAME":"EARTH","ELEMENT_SET_NO":"999","MEAN_ANOMALY":"281.2024","EPOCH":"2021-09-02T09:48:05.534496","EPHEMERIS_TYPE":"0","DECAY_DATE":null,"SITE":"AFETR","MEAN_ELEMENT_THEORY":"SGP4","NORAD_CAT_ID":"45576","TLE_LINE1":"1 45576U 20025AX  21245.40839739  .00000517  00000-0  53601-4 0  9995","OBJECT_TYPE":"PAYLOAD","TLE_LINE2":"2 45576  53.0534 280.5397 0000789  78.9054 281.2024 15.06384598 76933","INCLINATION":"53.0534","FILE":"3107538","BSTAR":"0.00005360100000","ARG_OF_PERICENTER":"78.9054","REF_FRAME":"TEME","MEAN_MOTION_DDOT":"0.0000000000000","OBJECT_NAME":"STARLINK-1328","COUNTRY_CODE":"US","RA_OF_ASC_NODE":"280.5397","MEAN_MOTION_DOT":"0.00000517","PERIOD":"95.593","MEAN_MOTION":"15.06384598"},{"NORAD_CAT_ID":"45577","TLE_LINE1":"1 45577U 20025AY  21245.36415006  .00000985  00000-0  85000-4 0  9995","MEAN_ELEMENT_THEORY":"SGP4","SITE":"AFETR","MEAN_MOTION_DDOT":"0.0000000000000","REF_FRAME":"TEME","BSTAR":"0.00008500000000","FILE":"3107538","ARG_OF_PERICENTER":"96.3842","TLE_LINE2":"2 45577  53.0547 280.7376 0000909  96.3842 263.7251 15.06392922 76915","INCLINATION":"53.0547","OBJECT_TYPE":"PAYLOAD","RA_OF_ASC_NODE":"280.7376","OBJECT_NAME":"STARLINK-1330","COUNTRY_CODE":"US","PERIOD":"95.593","MEAN_MOTION":"15.06392922","MEAN_MOTION_DOT":"0.00000985","ECCENTRICITY":"0.00009090","GP_ID":"183958824","RCS_SIZE":"LARGE","REV_AT_EPOCH":"7691","OBJECT_ID":"2020-025AY","LAUNCH_DATE":"2020-04-22","TIME_SYSTEM":"UTC","PERIAPSIS":"546.606","APOAPSIS":"547.865","CLASSIFICATION_TYPE":"U","SEMIMAJOR_AXIS":"6925.370","DECAY_DATE":null,"EPHEMERIS_TYPE":"0","EPOCH":"2021-09-02T08:44:22.565184","MEAN_ANOMALY":"263.7251","ELEMENT_SET_NO":"999","CENTER_NAME":"EARTH"},{"RA_OF_ASC_NODE":"279.9739","OBJECT_NAME":"STARLINK-1331","COUNTRY_CODE":"US","MEAN_MOTION_DOT":"0.00000573","PERIOD":"95.593","MEAN_MOTION":"15.06379572","MEAN_ELEMENT_THEORY":"SGP4","NORAD_CAT_ID":"45578","TLE_LINE1":"1 45578U 20025AZ  21245.53373121  .00000573  00000-0  57406-4 0  9998","SITE":"AFETR","REF_FRAME":"TEME","MEAN_MOTION_DDOT":"0.0000000000000","INCLINATION":"53.0547","TLE_LINE2":"2 45578  53.0547 279.9739 0000987  85.1233 274.9869 15.06379572 76954","OBJECT_TYPE":"PAYLOAD","FILE":"3107538","BSTAR":"0.00005740600000","ARG_OF_PERICENTER":"85.1233","TIME_SYSTEM":"UTC","SEMIMAJOR_AXIS":"6925.411","PERIAPSIS":"546.593","APOAPSIS":"547.960","CLASSIFICATION_TYPE":"U","MEAN_ANOMALY":"274.9869","EPOCH":"2021-09-02T12:48:34.376544","EPHEMERIS_TYPE":"0","DECAY_DATE":null,"CENTER_NAME":"EARTH","ELEMENT_SET_NO":"999","ECCENTRICITY":"0.00009870","OBJECT_ID":"2020-025AZ","GP_ID":"183958578","RCS_SIZE":"LARGE","REV_AT_EPOCH":"7695","LAUNCH_DATE":"2020-04-22"},{"SITE":"AFETR","MEAN_ELEMENT_THEORY":"SGP4","NORAD_CAT_ID":"45579","TLE_LINE1":"1 45579U 20025BA  21245.39268673  .00000558  00000-0  56441-4 0  9999","OBJECT_TYPE":"PAYLOAD","TLE_LINE2":"2 45579  53.0530 240.6071 0004880 190.6987 169.3899 15.06396921 77481","INCLINATION":"53.0530","FILE":"3107538","BSTAR":"0.00005644100000","ARG_OF_PERICENTER":"190.6987","REF_FRAME":"TEME","MEAN_MOTION_DDOT":"0.0000000000000","OBJECT_NAME":"STARLINK-1332","COUNTRY_CODE":"US","RA_OF_ASC_NODE":"240.6071","MEAN_MOTION_DOT":"0.00000558","PERIOD":"95.592","MEAN_MOTION":"15.06396921","LAUNCH_DATE":"2020-04-22","ECCENTRICITY":"0.00048800","GP_ID":"183959826","RCS_SIZE":"LARGE","OBJECT_ID":"2020-025BA","REV_AT_EPOCH":"7748","TIME_SYSTEM":"UTC","SEMIMAJOR_AXIS":"6925.358","PERIAPSIS":"543.843","APOAPSIS":"550.603","CLASSIFICATION_TYPE":"U","CENTER_NAME":"EARTH","ELEMENT_SET_NO":"999","EPOCH":"2021-09-02T09:25:28.133472","MEAN_ANOMALY":"169.3899","EPHEMERIS_TYPE":"0","DECAY_DATE":null},{"REF_FRAME":"TEME","MEAN_MOTION_DDOT":"0.0000000000000","OBJECT_TYPE":"PAYLOAD","TLE_LINE2":"2 45580  53.0538 290.5418 0001010  90.6879 269.4226 15.06393392 76788","INCLINATION":"53.0538","FILE":"3107538","BSTAR":"0.00009362300000","ARG_OF_PERICENTER":"90.6879","MEAN_ELEMENT_THEORY":"SGP4","NORAD_CAT_ID":"45580","TLE_LINE1":"1 45580U 20025BB  21245.40746393  .00001113  00000-0  93623-4 0  9994","SITE":"AFETR","MEAN_MOTION_DOT":"0.00001113","PERIOD":"95.593","MEAN_MOTION":"15.06393392","RA_OF_ASC_NODE":"290.5418","OBJECT_NAME":"STARLINK-1333","COUNTRY_CODE":"US","ECCENTRICITY":"0.00010100","OBJECT_ID":"2020-025BB","GP_ID":"183959580","RCS_SIZE":"LARGE","REV_AT_EPOCH":"7678","LAUNCH_DATE":"2020-04-22","EPOCH":"2021-09-02T09:46:44.883552","MEAN_ANOMALY":"269.4226","DECAY_DATE":null,"EPHEMERIS_TYPE":"0","CENTER_NAME":"EARTH","ELEMENT_SET_NO":"999","TIME_SYSTEM":"UTC","PERIAPSIS":"546.534","CLASSIFICATION_TYPE":"U","APOAPSIS":"547.933","SEMIMAJOR_AXIS":"6925.369"},{"DECAY_DATE":null,"EPHEMERIS_TYPE":"0","MEAN_ANOMALY":"287.0879","EPOCH":"2021-09-02T11:28:55.278912","ELEMENT_SET_NO":"999","CENTER_NAME":"EARTH","TIME_SYSTEM":"UTC","PERIAPSIS":"546.479","SEMIMAJOR_AXIS":"6925.369","APOAPSIS":"547.989","CLASSIFICATION_TYPE":"U","ECCENTRICITY":"0.00010900","RCS_SIZE":"LARGE","GP_ID":"183958328","REV_AT_EPOCH":"7693","OBJECT_ID":"2020-025BC","LAUNCH_DATE":"2020-04-22","PERIOD":"95.593","MEAN_MOTION":"15.06393360","MEAN_MOTION_DOT":"0.00000797","RA_OF_ASC_NODE":"280.2256","OBJECT_NAME":"STARLINK-1335","COUNTRY_CODE":"US","REF_FRAME":"TEME","MEAN_MOTION_DDOT":"0.0000000000000","FILE":"3107538","BSTAR":"0.00007237600000","ARG_OF_PERICENTER":"73.0229","TLE_LINE2":"2 45581  53.0536 280.2256 0001090  73.0229 287.0879 15.06393360 76937","INCLINATION":"53.0536","OBJECT_TYPE":"PAYLOAD","NORAD_CAT_ID":"45581","TLE_LINE1":"1 45581U 20025BC  21245.47841758  .00000797  00000-0  72376-4 0  9992","MEAN_ELEMENT_THEORY":"SGP4","SITE":"AFETR"}];
